{"fetched_at":"2026-03-29T16:36:15Z","count":15609,"tles":[{"name":"STARLINK-30838","line1":"1 58211U 23170F   26087.46917039  .00002068  00000+0  84636-4 0  9998","line2":"2 58211  43.0022  87.9893 0001475 266.3674  93.7009 15.27582282133170","category":"Starlink"}]}